{"type": "FeatureCollection", "features": [ {"type": "Feature", "properties": {"norad_id": 66879, "name": "STARLINK-35749", "group": "last-30-days", "lat": 8.491717737326523, "lon": -157.483871243852, "alt_km": 346.56776997614634, "timestamp": "2025-12-21T16:47:53.450933+00:00", "meta": {"OBJECT_NAME": "STARLINK-35749", "OBJECT_ID": "2025-283B", "EPOCH": "2025-12-21T12:00:02.000160", "MEAN_MOTION": 15.74203692, "ECCENTRICITY": 0.0001111, "INCLINATION": 53.1575, "RA_OF_ASC_NODE": 29.9361, "ARG_OF_PERICENTER": 86.161, "MEAN_ANOMALY": 29.5713, "EPHEMERIS_TYPE": 0, "CLASSIFICATION_TYPE": "U", "NORAD_CAT_ID": 66879, "ELEMENT_SET_NO": 999, "REV_AT_EPOCH": 383, "BSTAR": -0.00016903, "MEAN_MOTION_DOT": -0.00025325, "MEAN_MOTION_DDOT": 0}, "tle": {"line1": "1 66879U 25283B   25355.50002315 -.00025325  00000+0 -16903-3 0  9992", "line2": "2 66879  53.1575  29.9361 0001111  86.1610  29.5713 15.74203692  3830"}}, "geometry": {"type": "Point", "coordinates": [-157.483871243852, 8.491717737326523]}}, {"type": "Feature", "properties": {"norad_id": 66880, "name": "STARLINK-35844", "group": "last-30-days", "lat": 10.01540405885734, "lon": -158.66113361663056, "alt_km": 346.3531066446294, "timestamp": "2025-12-21T16:47:53.450943+00:00", "meta": {"OBJECT_NAME": "STARLINK-35844", "OBJECT_ID": "2025-283C", "EPOCH": "2025-12-21T12:00:02.000160", "MEAN_MOTION": 15.74188857, "ECCENTRICITY": 0.0001144, "INCLINATION": 53.1577, "RA_OF_ASC_NODE": 29.9405, "ARG_OF_PERICENTER": 84.3946, "MEAN_ANOMALY": 29.4265, "EPHEMERIS_TYPE": 0, "CLASSIFICATION_TYPE": "U", "NORAD_CAT_ID": 66880, "ELEMENT_SET_NO": 999, "REV_AT_EPOCH": 383, "BSTAR": 6.701e-06, "MEAN_MOTION_DOT": 3.52e-06, "MEAN_MOTION_DDOT": 0}, "tle": {"line1": "1 66880U 25283C   25355.50002315  .00000352  00000+0  67010-5 0  9992", "line2": "2 66880  53.1577  29.9405 0001144  84.3946  29.4265 15.74188857  3837"}}, "geometry": {"type": "Point", "coordinates": [-158.66113361663056, 10.01540405885734]}}, {"type": "Feature", "properties": {"norad_id": 66881, "name": "STARLINK-35860", "group": "last-30-days", "lat": 6.968309757433104, "lon": -156.31841246822674, "alt_km": 346.75099559882165, "timestamp": "2025-12-21T16:47:53.450953+00:00", "meta": {"OBJECT_NAME": "STARLINK-35860", "OBJECT_ID": "2025-283D", "EPOCH": "2025-12-21T12:00:02.000160", "MEAN_MOTION": 15.74190055, "ECCENTRICITY": 0.0001054, "INCLINATION": 53.1574, "RA_OF_ASC_NODE": 29.9321, "ARG_OF_PERICENTER": 92.8844, "MEAN_ANOMALY": 24.7688, "EPHEMERIS_TYPE": 0, "CLASSIFICATION_TYPE": "U", "NORAD_CAT_ID": 66881, "ELEMENT_SET_NO": 999, "REV_AT_EPOCH": 383, "BSTAR": -2.9906e-05, "MEAN_MOTION_DOT": -5.006e-05, "MEAN_MOTION_DDOT": 0}, "tle": {"line1": "1 66881U 25283D   25355.50002315 -.00005006  00000+0 -29906-4 0  9997", "line2": "2 66881  53.1574  29.9321 0001054  92.8844  24.7688 15.74190055  3833"}}, "geometry": {"type": "Point", "coordinates": [-156.31841246822674, 6.968309757433104]}}, {"type": "Feature", "properties": {"norad_id": 66882, "name": "STARLINK-35912", "group": "last-30-days", "lat": 5.437270387362565, "lon": -155.15638711198588, "alt_km": 347.2252638304117, "timestamp": "2025-12-21T16:47:53.450965+00:00", "meta": {"OBJECT_NAME": "STARLINK-35912", "OBJECT_ID": "2025-283E", "EPOCH": "2025-12-21T12:00:02.000160", "MEAN_MOTION": 15.74195094, "ECCENTRICITY": 0.0001089, "INCLINATION": 53.1575, "RA_OF_ASC_NODE": 29.9286, "ARG_OF_PERICENTER": 75.1529, "MEAN_ANOMALY": 44.4189, "EPHEMERIS_TYPE": 0, "CLASSIFICATION_TYPE": "U", "NORAD_CAT_ID": 66882, "ELEMENT_SET_NO": 999, "REV_AT_EPOCH": 383, "BSTAR": -0.00019682, "MEAN_MOTION_DOT": -0.00029361, "MEAN_MOTION_DDOT": 0}, "tle": {"line1": "1 66882U 25283E   25355.50002315 -.00029361  00000+0 -19682-3 0  9997", "line2": "2 66882  53.1575  29.9286 0001089  75.1529  44.4189 15.74195094  3830"}}, "geometry": {"type": "Point", "coordinates": [-155.15638711198588, 5.437270387362565]}}, {"type": "Feature", "properties": {"norad_id": 66883, "name": "STARLINK-35947", "group": "last-30-days", "lat": 3.9076635956495624, "lon": -154.0032534788062, "alt_km": 347.3592795235445, "timestamp": "2025-12-21T16:47:53.450976+00:00", "meta": {"OBJECT_NAME": "STARLINK-35947", "OBJECT_ID": "2025-283F", "EPOCH": "2025-12-21T12:00:02.000160", "MEAN_MOTION": 15.7419508, "ECCENTRICITY": 0.0001035, "INCLINATION": 53.1576, "RA_OF_ASC_NODE": 29.9249, "ARG_OF_PERICENTER": 81.5643, "MEAN_ANOMALY": 39.9202, "EPHEMERIS_TYPE": 0, "CLASSIFICATION_TYPE": "U", "NORAD_CAT_ID": 66883, "ELEMENT_SET_NO": 999, "REV_AT_EPOCH": 388, "BSTAR": -6.9712e-05, "MEAN_MOTION_DOT": -0.00010828, "MEAN_MOTION_DDOT": 0}, "tle": {"line1": "1 66883U 25283F   25355.50002315 -.00010828  00000+0 -69712-4 0  9996", "line2": "2 66883  53.1576  29.9249 0001035  81.5643  39.9202 15.74195080  3885"}}, "geometry": {"type": "Point", "coordinates": [-154.0032534788062, 3.9076635956495624]}}, {"type": "Feature", "properties": {"norad_id": 66884, "name": "STARLINK-36057", "group": "last-30-days", "lat": 0.8399190843908502, "lon": -151.70610177877617, "alt_km": 347.68798443032665, "timestamp": "2025-12-21T16:47:53.450986+00:00", "meta": {"OBJECT_NAME": "STARLINK-36057", "OBJECT_ID": "2025-283G", "EPOCH": "2025-12-21T12:00:02.000160", "MEAN_MOTION": 15.74204502, "ECCENTRICITY": 0.0001109, "INCLINATION": 53.1575, "RA_OF_ASC_NODE": 29.9161, "ARG_OF_PERICENTER": 91.2819, "MEAN_ANOMALY": 34.0324, "EPHEMERIS_TYPE": 0, "CLASSIFICATION_TYPE": "U", "NORAD_CAT_ID": 66884, "ELEMENT_SET_NO": 999, "REV_AT_EPOCH": 383, "BSTAR": -0.00016346, "MEAN_MOTION_DOT": -0.00024514, "MEAN_MOTION_DDOT": 0}, "tle": {"line1": "1 66884U 25283G   25355.50002315 -.00024514  00000+0 -16346-3 0  9998", "line2": "2 66884  53.1575  29.9161 0001109  91.2819  34.0324 15.74204502  3839"}}, "geometry": {"type": "Point", "coordinates": [-151.70610177877617, 0.8399190843908502]}}, {"type": "Feature", "properties": {"norad_id": 66885, "name": "STARLINK-35954", "group": "last-30-days", "lat": 2.370320255798639, "lon": -152.85084993046553, "alt_km": 347.55691099262003, "timestamp": "2025-12-21T16:47:53.450996+00:00", "meta": {"OBJECT_NAME": "STARLINK-35954", "OBJECT_ID": "2025-283H", "EPOCH": "2025-12-21T12:00:02.000160", "MEAN_MOTION": 15.74200309, "ECCENTRICITY": 0.0001077, "INCLINATION": 53.1574, "RA_OF_ASC_NODE": 29.9201, "ARG_OF_PERICENTER": 82.3894, "MEAN_ANOMALY": 41.0118, "EPHEMERIS_TYPE": 0, "CLASSIFICATION_TYPE": "U", "NORAD_CAT_ID": 66885, "ELEMENT_SET_NO": 999, "REV_AT_EPOCH": 383, "BSTAR": 9.2754e-06, "MEAN_MOTION_DOT": 7.3e-06, "MEAN_MOTION_DDOT": 0}, "tle": {"line1": "1 66885U 25283H   25355.50002315  .00000730  00000+0  92754-5 0  9990", "line2": "2 66885  53.1574  29.9201 0001077  82.3894  41.0118 15.74200309  3832"}}, "geometry": {"type": "Point", "coordinates": [-152.85084993046553, 2.370320255798639]}}, {"type": "Feature", "properties": {"norad_id": 66886, "name": "STARLINK-35900", "group": "last-30-days", "lat": -0.6934340579250579, "lon": -150.5608924350701, "alt_km": 348.02249971972924, "timestamp": "2025-12-21T16:47:53.451006+00:00", "meta": {"OBJECT_NAME": "STARLINK-35900", "OBJECT_ID": "2025-283J", "EPOCH": "2025-12-21T12:00:02.000160", "MEAN_MOTION": 15.74192947, "ECCENTRICITY": 0.0001041, "INCLINATION": 53.1574, "RA_OF_ASC_NODE": 29.9115, "ARG_OF_PERICENTER": 83.0886, "MEAN_ANOMALY": 44.1479, "EPHEMERIS_TYPE": 0, "CLASSIFICATION_TYPE": "U", "NORAD_CAT_ID": 66886, "ELEMENT_SET_NO": 999, "REV_AT_EPOCH": 383, "BSTAR": -1.1072e-05, "MEAN_MOTION_DOT": -2.25e-05, "MEAN_MOTION_DDOT": 0}, "tle": {"line1": "1 66886U 25283J   25355.50002315 -.00002250  00000+0 -11072-4 0  9995", "line2": "2 66886  53.1574  29.9115 0001041  83.0886  44.1479 15.74192947  3839"}}, "geometry": {"type": "Point", "coordinates": [-150.5608924350701, -0.6934340579250579]}}, {"type": "Feature", "properties": {"norad_id": 66887, "name": "STARLINK-35925", "group": "last-30-days", "lat": -2.226143062539103, "lon": -149.41432575337672, "alt_km": 348.3417736872416, "timestamp": "2025-12-21T16:47:53.451016+00:00", "meta": {"OBJECT_NAME": "STARLINK-35925", "OBJECT_ID": "2025-283K", "EPOCH": "2025-12-21T12:00:02.000160", "MEAN_MOTION": 15.74198806, "ECCENTRICITY": 9.68e-05, "INCLINATION": 53.1576, "RA_OF_ASC_NODE": 29.9078, "ARG_OF_PERICENTER": 74.667, "MEAN_ANOMALY": 54.4864, "EPHEMERIS_TYPE": 0, "CLASSIFICATION_TYPE": "U", "NORAD_CAT_ID": 66887, "ELEMENT_SET_NO": 999, "REV_AT_EPOCH": 383, "BSTAR": -0.0001994, "MEAN_MOTION_DOT": -0.00029741, "MEAN_MOTION_DDOT": 0}, "tle": {"line1": "1 66887U 25283K   25355.50002315 -.00029741  00000+0 -19940-3 0  9991", "line2": "2 66887  53.1576  29.9078 0000968  74.6670  54.4864 15.74198806  3836"}}, "geometry": {"type": "Point", "coordinates": [-149.41432575337672, -2.226143062539103]}}, {"type": "Feature", "properties": {"norad_id": 66888, "name": "STARLINK-35919", "group": "last-30-days", "lat": -3.761175630013149, "lon": -148.26320410562306, "alt_km": 348.5453908161471, "timestamp": "2025-12-21T16:47:53.451028+00:00", "meta": {"OBJECT_NAME": "STARLINK-35919", "OBJECT_ID": "2025-283L", "EPOCH": "2025-12-21T12:00:02.000160", "MEAN_MOTION": 15.74200082, "ECCENTRICITY": 0.0001057, "INCLINATION": 53.1572, "RA_OF_ASC_NODE": 29.9038, "ARG_OF_PERICENTER": 77.155, "MEAN_ANOMALY": 53.9174, "EPHEMERIS_TYPE": 0, "CLASSIFICATION_TYPE": "U", "NORAD_CAT_ID": 66888, "ELEMENT_SET_NO": 999, "REV_AT_EPOCH": 383, "BSTAR": -0.00024231, "MEAN_MOTION_DOT": -0.00035982, "MEAN_MOTION_DDOT": 0}, "tle": {"line1": "1 66888U 25283L   25355.50002315 -.00035982  00000+0 -24231-3 0  9995", "line2": "2 66888  53.1572  29.9038 0001057  77.1550  53.9174 15.74200082  3832"}}, "geometry": {"type": "Point", "coordinates": [-148.26320410562306, -3.761175630013149]}}]}